*******************************************************************************
Ephemeris / WWW_USER Wed Mar 14 15:41:45 2018 Pasadena, USA      / Horizons    
*******************************************************************************
Target body name: Europa (502)                    {source: jup310}
Center body name: Solar System Barycenter (0)     {source: DE431mx}
Center-site name: BODY CENTER
*******************************************************************************
Start time      : A.D. 2000-Jan-01 00:00:00.0000 TDB
Stop  time      : A.D. 2001-Jan-01 00:00:00.0000 TDB
Step-size       : 7200 minutes
*******************************************************************************
Center geodetic : 0.00000000,0.00000000,0.0000000 {E-lon(deg),Lat(deg),Alt(km)}
Center cylindric: 0.00000000,0.00000000,0.0000000 {E-lon(deg),Dxy(km),Dz(km)}
Center radii    : (undefined)                                                  
Output units    : AU-D                                                         
Output type     : GEOMETRIC cartesian states
Output format   : 2 (position and velocity)
Reference frame : ICRF/J2000.0                                                 
Coordinate systm: Ecliptic and Mean Equinox of Reference Epoch                 
*******************************************************************************
JDTDB
   X     Y     Z
   VX    VY    VZ
*******************************************************************************
$$SOE
2451544.500000000 = A.D. 2000-Jan-01 00:00:00.0000 TDB 
   3.992096106630625E+00  2.934016253703186E+00 -1.016374388380746E-01
  -7.083467324913714E-03 -1.112032240441494E-03 -1.706105275073614E-04
2451549.500000000 = A.D. 2000-Jan-06 00:00:00.0000 TDB 
   3.976288433100051E+00  2.961233549367350E+00 -1.012913109217267E-01
   1.530404286718677E-03  1.144303692045662E-02  3.046042171403644E-04
2451554.500000000 = A.D. 2000-Jan-11 00:00:00.0000 TDB 
   3.949876307254020E+00  3.001090896569218E+00 -1.007318930882114E-01
  -1.251427446499099E-02  5.641148808583256E-03 -5.500470608368402E-05
2451559.500000000 = A.D. 2000-Jan-16 00:00:00.0000 TDB 
   3.924855314231102E+00  3.024381834892361E+00 -1.005979999302196E-01
   2.420189157551119E-03  2.677425405573326E-03  7.946548629609873E-05
2451564.500000000 = A.D. 2000-Jan-21 00:00:00.0000 TDB 
   3.907178544901732E+00  3.062141974899108E+00 -9.994269237502554E-02
  -8.623291922953408E-03  1.313342911513682E-02  2.148270719781317E-04
2451569.500000000 = A.D. 2000-Jan-26 00:00:00.0000 TDB 
   3.874938368531361E+00  3.091620799813061E+00 -9.971086968386106E-02
  -5.345078036864332E-03 -1.720596962559907E-03 -1.479897331603611E-04
2451574.500000000 = A.D. 2000-Jan-31 00:00:00.0000 TDB 
   3.858930825623922E+00  3.119847179616428E+00 -9.926772399475350E-02
  -1.665495815689732E-04  1.258290986263347E-02  3.260100470935896E-04
2451579.500000000 = A.D. 2000-Feb-05 00:00:00.0000 TDB 
   3.829484327972863E+00  3.157729478483005E+00 -9.873332258118260E-02
  -1.236185295561439E-02  3.527701431396007E-03 -9.619450374987496E-05
2451584.500000000 = A.D. 2000-Feb-10 00:00:00.0000 TDB 
   3.805450940427475E+00  3.179941634970903E+00 -9.854261634672531E-02
   2.849314987458764E-03  4.407930290773737E-03  1.473789332734775E-04
2451589.500000000 = A.D. 2000-Feb-15 00:00:00.0000 TDB 
   3.784882902602769E+00  3.218029047568304E+00 -9.784720113413420E-02
  -1.040880785466930E-02  1.180520286297124E-02  1.675752473257121E-04
2451594.500000000 = A.D. 2000-Feb-20 00:00:00.0000 TDB 
   3.752209388859833E+00  3.244531858457719E+00 -9.763078686240638E-02
  -3.535192912123198E-03 -1.803283806265815E-03 -1.101154707671729E-04
2451599.500000000 = A.D. 2000-Feb-25 00:00:00.0000 TDB 
   3.735526193436410E+00  3.273906938216915E+00 -9.709358062509225E-02
  -2.107072840385424E-03  1.331581337722637E-02  3.329915248909488E-04
2451604.500000000 = A.D. 2000-Mar-01 00:00:00.0000 TDB 
   3.703390123993818E+00  3.309349227962921E+00 -9.659189007519747E-02
  -1.172639216978768E-02  1.530077407379109E-03 -1.274790392107538E-04
2451609.500000000 = A.D. 2000-Mar-06 00:00:00.0000 TDB 
   3.680353820655830E+00  3.330985293095001E+00 -9.633072316501530E-02
   2.767687247608981E-03  6.205229466217904E-03  2.098705676389986E-04
2451614.500000000 = A.D. 2000-Mar-11 00:00:00.0000 TDB 
   3.656683616199395E+00  3.368893423454894E+00 -9.561200397897761E-02
  -1.188707535434574E-02  1.012098239599678E-02  1.149974973732856E-04
2451619.500000000 = A.D. 2000-Mar-16 00:00:00.0000 TDB 
   3.624103631805586E+00  3.392614393846629E+00 -9.539838896534222E-02
  -1.818200635164978E-03 -1.358954731532407E-03 -5.931230460141509E-05
2451624.500000000 = A.D. 2000-Mar-21 00:00:00.0000 TDB 
   3.606242533563473E+00  3.423134666019485E+00 -9.477444291523464E-02
  -4.192181616136839E-03  1.360658025394353E-02  3.259292341364829E-04
2451629.500000000 = A.D. 2000-Mar-26 00:00:00.0000 TDB 
   3.571867188217572E+00  3.455752312249798E+00 -9.430973686150750E-02
  -1.062491323847621E-02 -2.161162396197917E-04 -1.454083875025369E-04
2451634.500000000 = A.D. 2000-Mar-31 00:00:00.0000 TDB 
   3.549697657215394E+00  3.477298291691964E+00 -9.396695142677983E-02
   2.203976731352547E-03  7.939281669774645E-03  2.637790969227322E-04
2451639.500000000 = A.D. 2000-Apr-05 00:00:00.0000 TDB 
   3.522828016344846E+00  3.514478588633066E+00 -9.324132766181215E-02
  -1.297746532528561E-02  8.146381299257013E-03  5.998146419329823E-05
2451644.500000000 = A.D. 2000-Apr-10 00:00:00.0000 TDB 
   3.490802150917583E+00  3.535730341065919E+00 -9.301580522105500E-02
  -3.453840597537206E-04 -4.467975025554226E-04  6.932807630490095E-07
2451649.500000000 = A.D. 2000-Apr-15 00:00:00.0000 TDB 
   3.471280946980459E+00  3.567267806955100E+00 -9.231567741187043E-02
  -6.337641891949324E-03  1.344511333507641E-02  3.057688898305454E-04
2451654.500000000 = A.D. 2000-Apr-20 00:00:00.0000 TDB 
   3.435185512059227E+00  3.596785187250646E+00 -9.188831911528567E-02
  -9.145037241194984E-03 -1.579360201434185E-03 -1.477004799613312E-04
2451659.500000000 = A.D. 2000-Apr-25 00:00:00.0000 TDB 
   3.413624119980221E+00  3.618653730094671E+00 -9.145673949943642E-02
   1.204439536504296E-03  9.497982108016641E-03  3.066909471198212E-04
2451664.500000000 = A.D. 2000-Apr-30 00:00:00.0000 TDB 
   3.383590972602284E+00  3.654541158201771E+00 -9.073932462596560E-02
  -1.359249989147304E-02  5.965831411419303E-03  6.026136183882855E-06
2451669.500000000 = A.D. 2000-May-05 00:00:00.0000 TDB 
   3.352472089911754E+00  3.673745104198217E+00 -9.048587265614212E-02
   7.770228632343503E-04  8.278175463971339E-04  6.542887541278227E-05
2451674.500000000 = A.D. 2000-May-10 00:00:00.0000 TDB 
   3.330848509374647E+00  3.706043781512585E+00 -8.972308801930313E-02
  -8.447344290026606E-03  1.281710119919622E-02  2.734716399089370E-04
2451679.500000000 = A.D. 2000-May-15 00:00:00.0000 TDB 
   3.293616254660315E+00  3.732310568285615E+00 -8.932934296593209E-02
  -7.414095285285241E-03 -2.459228901660384E-03 -1.334769447807790E-04
2451684.500000000 = A.D. 2000-May-20 00:00:00.0000 TDB 
   3.272306329314228E+00  3.754831779474232E+00 -8.880553869569176E-02
  -1.720541818716716E-04  1.081091350821519E-02  3.376143724020160E-04
2451689.500000000 = A.D. 2000-May-25 00:00:00.0000 TDB 
   3.239261506715825E+00  3.788870393141657E+00 -8.810955708545772E-02
  -1.367852305875383E-02  3.712436221954989E-03 -4.255817264283416E-05
2451694.500000000 = A.D. 2000-May-30 00:00:00.0000 TDB 
   3.209276348101900E+00  3.806505041819203E+00 -8.781263427039900E-02
   1.482364953576432E-03  2.346311920359992E-03  1.307374768829189E-04
2451699.500000000 = A.D. 2000-Jun-04 00:00:00.0000 TDB 
   3.185183409745195E+00  3.839211610767808E+00 -8.700231477304690E-02
  -1.041940095782162E-02  1.171439994838634E-02  2.302867273070409E-04
2451704.500000000 = A.D. 2000-Jun-09 00:00:00.0000 TDB 
   3.147405272433896E+00  3.862226539008405E+00 -8.663446439997932E-02
  -5.589717857113034E-03 -2.820798669504388E-03 -1.041839299044238E-04
2451709.500000000 = A.D. 2000-Jun-14 00:00:00.0000 TDB 
   3.125917587067329E+00  3.885605404364541E+00 -8.601951835314930E-02
  -1.863892342263780E-03  1.180282148498499E-02  3.554514401628114E-04
2451714.500000000 = A.D. 2000-Jun-19 00:00:00.0000 TDB 
   3.090154788961909E+00  3.917276046512898E+00 -8.535534674619022E-02
  -1.321714540910381E-02  1.543113758188361E-03 -8.141816315313857E-05
2451719.500000000 = A.D. 2000-Jun-24 00:00:00.0000 TDB 
   3.061388312360573E+00  3.933857860417003E+00 -8.500054277317802E-02
   1.753107953586795E-03  4.001170220364081E-03  1.935245381869158E-04
2451724.500000000 = A.D. 2000-Jun-29 00:00:00.0000 TDB 
   3.034536677330888E+00  3.966526666205734E+00 -8.415918314485925E-02
  -1.212879745087381E-02  1.016693875184999E-02  1.787305464431504E-04
2451729.500000000 = A.D. 2000-Jul-04 00:00:00.0000 TDB 
   2.996787685493949E+00  3.986426611426618E+00 -8.380629710258237E-02
  -3.820847796262224E-03 -2.676893730158987E-03 -6.227166627868126E-05
2451734.500000000 = A.D. 2000-Jul-09 00:00:00.0000 TDB 
   2.974659882332557E+00  4.010759691564173E+00 -8.310461985691367E-02
  -3.815795410541474E-03  1.240689629875563E-02  3.593159862976944E-04
2451739.500000000 = A.D. 2000-Jul-14 00:00:00.0000 TDB 
   2.936580056505838E+00  4.039618617233326E+00 -8.247927133011609E-02
  -1.226266188767360E-02 -3.875971173603654E-04 -1.073234900111025E-04
2451744.500000000 = A.D. 2000-Jul-19 00:00:00.0000 TDB 
   2.908979070745213E+00  4.055638750993936E+00 -8.205496619378287E-02
   1.582215600122297E-03  5.692449754647100E-03  2.510879417677609E-04
2451749.500000000 = A.D. 2000-Jul-24 00:00:00.0000 TDB 
   2.879196678019357E+00  4.087755301072468E+00 -8.119928885207804E-02
  -1.344645725901911E-02  8.240873792985810E-03  1.221944897236995E-04
